{"type":"FeatureCollection","features":[{"type":"Feature","properties":{"shapeName":"Upper Uele","shapeISO":"CD-HU"},"geometry":{"type":"Polygon","coordinates":[[[26.9991299,5.1715914],[27.02977,4.8268],[27.15166,4.40027],[27.2541618,3.9073443],[27.3326797,3.7543099],[27.2802505,3.28232],[27.3597237,3.2831238],[27.4356961,3.2947095],[27.5293043,3.3125942],[27.6258388,3.3165145],[27.6836127,3.1997208],[27.5942957,3.003487],[27.4125309,2.7729299],[27.0374603,2.7760999],[27.0482502,2.5223701],[27.1435669,2.2719937],[27.1079557,2.1662001],[27.0503857,2.0667097],[27.0279404,1.9225043],[27.247126,1.9618106],[27.3600001,1.9640815],[27.3511303,1.7687707],[27.3052503,1.7101719],[27.287607,1.6752944],[27.2364275,1.6066599],[27.2386542,1.5560317],[27.4685802,1.53158],[27.6107807,1.60788],[27.7253094,1.8408],[28.1889896,1.78039],[28.565652,2.3247569],[28.7253561,2.2108288],[28.7487622,2.294313],[29.1742191,2.4547601],[29.6272907,2.41506],[29.7458,2.18593],[29.8807443,2.1790501],[29.9263287,2.2300154],[29.9411452,2.2821627],[29.9791521,2.2915483],[30.15947,2.65145],[30.11007,2.91127],[30.32287,3.31709],[30.5707843,3.6661779],[30.5297574,3.8556636],[30.4102679,3.865622],[30.2964684,3.9143124],[30.2113705,3.9400052],[30.1697987,4.0624215],[30.0514368,4.1506807],[29.9530965,4.2391112],[29.8382072,4.3377151],[29.8068576,4.5037265],[29.7794535,4.5750028],[29.6644632,4.6318536],[29.5347085,4.6550495],[29.4702856,4.6292022],[29.4037667,4.4728196],[29.2937171,4.3943031],[29.2008381,4.3643284],[29.0827122,4.4520093],[28.9656305,4.479196],[28.8113845,4.5065343],[28.7250587,4.5410402],[28.6692044,4.4293608],[28.4996453,4.3589979],[28.3808098,4.285291],[28.2564007,4.3484749],[28.140454,4.4427573],[28.0503845,4.4592277],[27.996049,4.5601089],[27.9151502,4.5394327],[27.7700519,4.7061701],[27.7332658,4.8012058],[27.6483055,4.8960954],[27.5098164,4.9509919],[27.4254864,5.0840854],[27.2673385,5.1446066],[27.1791849,5.188439],[27.1028009,5.2070185],[27.0478741,5.1926142],[26.9991299,5.1715914]]]}},{"type":"Feature","properties":{"shapeName":"Ituri","shapeISO":"CD-IT"},"geometry":{"type":"Polygon","coordinates":[[[27.3882661,1.533653],[27.6471596,1.31204],[27.8367805,1.03763],[27.9589195,0.65873],[28.5571995,0.58611],[29.0116997,0.61194],[29.326039,0.6374576],[29.3652992,0.79361],[29.7161007,0.87667],[29.8781535,0.8855872],[29.9086013,0.8081841],[29.9553933,0.8116765],[29.9958889,0.8478822],[30.041554,0.8632739],[30.0970098,0.8828054],[30.1452875,0.8830485],[30.1679615,0.9059376],[30.1799682,0.9505851],[30.1953013,0.9657765],[30.2140735,0.9885266],[30.2286722,1.0102251],[30.2297467,1.0551735],[30.2390188,1.1003436],[30.2701575,1.1584418],[30.31169,1.1609391],[30.3509718,1.1882075],[30.4430449,1.2015542],[30.4541848,1.2146462],[30.450067,1.2731596],[30.4045827,1.2606928],[30.3698457,1.2679784],[30.3569501,1.2908343],[30.4428286,1.3850128],[30.5450941,1.5591468],[30.7353159,1.7172135],[30.8558091,1.8436445],[31.0216767,1.9676697],[31.2257379,2.1074078],[31.2030752,2.2208559],[31.1526116,2.280148],[31.0978571,2.2793844],[31.0299782,2.3787763],[30.9878248,2.4021839],[30.9373165,2.3396981],[30.8661565,2.3699593],[30.8150934,2.4260572],[30.7463592,2.491322],[30.778483,2.6133217],[30.8071569,2.7037772],[30.8471984,2.7696656],[30.8664549,2.9117769],[30.8021814,3.0068121],[30.8090461,3.1423692],[30.8664234,3.2860286],[30.9168329,3.38241],[30.9386962,3.4711041],[30.8654126,3.480015],[30.845111,3.5842936],[30.8012575,3.6323344],[30.7551794,3.6437785],[30.6497473,3.6223159],[30.37751,3.46299],[30.22625,3.05767],[30.17326,2.82634],[30.12403,2.54304],[29.9727684,2.2893399],[29.9452222,2.276245],[29.9333453,2.238549],[29.8898509,2.1757995],[29.8620546,2.1443991],[29.5843792,2.2339201],[29.4069691,2.42365],[29.13204,2.4266801],[28.7487622,2.294313],[28.744732,2.2085054],[28.6114947,2.2680709],[28.3041897,2.03439],[27.9119205,1.76232],[27.5939102,1.81506],[27.7113991,1.5593899],[27.4587402,1.53628],[27.3882661,1.533653]]]}},{"type":"Feature","properties":{"shapeName":"Tshopo","shapeISO":"CD-TO"},"geometry":{"type":"Polygon","coordinates":[[[27.0412828,1.9382098],[26.969928,1.9785194],[26.9423045,2.0332099],[26.9203979,2.0963173],[26.8772677,2.1562884],[26.54216,2.03193],[26.0270901,2.2674401],[25.4198494,2.2086501],[24.6132698,2.2192099],[23.7699795,2.2009799],[23.4269064,2.2241925],[23.3144204,2.167879],[23.0454802,2.2118613],[22.9401219,2.1117504],[22.6599998,2.1019399],[22.4317526,1.8751942],[22.2691947,1.5208888],[22.3577396,1.4991444],[22.4274736,1.4861523],[22.4951828,1.4697712],[22.56648,1.4356375],[22.6278341,1.3791016],[22.6689791,1.3019502],[22.6989195,1.2456945],[22.7494423,1.1907643],[22.7747587,1.1164403],[22.7911403,1.0640492],[22.8285025,1.0139766],[22.842401,0.9414852],[22.8505423,0.8838877],[22.8720356,0.8243099],[22.881491,0.7736716],[22.8896021,0.7161387],[22.9133432,0.665151],[22.965317,0.6165388],[23.3139476,-0.0761164],[23.5288238,-0.4403287],[23.5006527,-0.732503],[24.0253798,-1.218716],[24.9573939,-1.7456558],[25.115304,-1.8076591],[25.1681434,-1.9778233],[25.2637283,-1.9499274],[25.4859057,-1.9592804],[25.6732718,-1.9072835],[25.7851456,-1.8347976],[25.9581881,-1.512506],[26.0760318,-1.3743655],[26.2417753,-0.9219825],[26.0707744,0.0010213],[26.1308893,-0.016678],[26.208558,-0.0780342],[26.2684421,-0.1278062],[26.362666,-0.2039089],[26.4438099,-0.2981769],[26.5145624,-0.3847558],[26.5743777,-0.4200481],[26.6705466,-0.3867448],[26.7425223,-0.3301458],[26.8252053,-0.2682191],[26.9294014,-0.21599],[27.0938024,-0.2625354],[27.134192,-0.352646],[27.2031836,-0.3978138],[27.3483009,-0.48583],[27.8500004,-0.47833],[28.0574562,-0.2744398],[28.1326228,-0.1903292],[28.1243201,0.0121194],[28.1611637,0.1300119],[28.0935648,0.2762589],[28.033264,0.4095757],[27.9960449,0.4812722],[27.8099084,0.5081222],[27.9179306,0.74552],[27.6577301,1.30661],[27.3142856,1.5545484],[27.2394232,1.5929686],[27.3037512,1.6940592],[27.3551398,1.7691555],[27.2649605,2.045314],[27.0293866,1.9159999],[27.0412828,1.9382098]]]}},{"type":"Feature","properties":{"shapeName":"Lower Uele","shapeISO":"CD-BU"},"geometry":{"type":"Polygon","coordinates":[[[26.9991299,5.1715914],[26.9240657,5.1258705],[26.8870903,5.0669793],[26.8551118,5.0367357],[26.8012342,5.0529229],[26.7656374,5.0875362],[26.7237506,5.1043808],[26.6801174,5.0950121],[26.6315548,5.0731589],[26.5944775,5.0782098],[26.5512777,5.0820035],[26.5239841,5.0481914],[26.4480087,5.0742925],[26.4175397,5.1272474],[26.3773506,5.1488529],[26.3099167,5.149995],[26.2483838,5.1775492],[26.213956,5.2040713],[26.1852656,5.2305799],[26.1158568,5.2390032],[26.0362162,5.2088317],[25.9550052,5.1957684],[25.8596126,5.2246313],[25.7811142,5.240883],[25.7240071,5.2676519],[25.634468,5.3039149],[25.5482363,5.3789631],[25.4405419,5.3367753],[25.3612932,5.2994839],[25.3342276,5.1497021],[25.1791364,5.0022228],[25.0731532,4.9567278],[24.8845571,4.951493],[24.7233962,4.8949332],[24.5863154,5.031657],[24.3727112,5.1099175],[24.2937369,5.0028655],[24.136169,4.8950522],[23.9784804,4.8741208],[23.8397603,4.8338198],[23.5814223,4.7472788],[23.4298316,4.6028858],[23.2076803,4.6985474],[22.9391343,4.8157121],[22.7723847,4.6842975],[22.6398213,4.4862348],[22.6135402,4.3668996],[22.5066191,4.1765241],[22.7591991,3.9638901],[23.1424901,3.8906069],[23.3853909,3.8119923],[23.3561001,3.60917],[22.7278004,3.4716699],[22.696043,3.1329924],[23.0597345,3.033441],[23.1974183,2.5293551],[23.3379049,2.4993445],[23.5204124,2.4555571],[24.0475292,2.16851],[24.90201,2.2267599],[25.4989491,2.1739299],[26.0525799,2.2678599],[26.4736805,2.0397699],[26.8457093,2.1655274],[26.8975317,2.1179567],[26.9302238,2.0600905],[26.9453353,1.9976773],[26.9781668,1.9666267],[27.0414576,1.9756174],[27.0827723,2.1340808],[27.1417059,2.2584986],[26.9798393,2.5007701],[27.1673698,2.8145599],[27.5394419,3.0131304],[27.6836127,3.1997208],[27.5929808,3.3215332],[27.4893636,3.3085837],[27.3826083,3.2854119],[27.2565002,3.3178899],[27.3014321,3.8238357],[27.20558,4.23208],[27.00951,4.77149],[26.9991299,5.1715914]]]}},{"type":"Feature","properties":{"shapeName":"Mongala","shapeISO":"CD-MO"},"geometry":{"type":"Polygon","coordinates":[[[23.5724731,2.3965396],[23.391112,2.5294714],[23.3151749,2.4978939],[23.2402673,2.51811],[22.8801611,2.7643802],[23.0121907,3.0708365],[22.7261232,3.1188301],[22.6286309,3.3233345],[22.5157928,3.0554537],[22.3488715,3.0289066],[22.309241,3.0080127],[22.2627382,2.9888898],[22.210977,2.9705816],[22.1641661,2.9643495],[22.1249536,2.9511429],[22.0863341,2.945784],[22.0519736,2.932416],[22.0135799,2.9207296],[21.9768976,2.9097038],[21.9328948,2.9063324],[21.8832945,2.9083675],[21.8412375,2.9123106],[21.7972922,2.9234541],[21.739099,2.9330546],[21.6898321,2.929283],[21.6530966,2.9315117],[21.4745688,2.9512267],[21.3954329,3.0012842],[21.2852263,3.0707095],[21.2031721,3.1380734],[21.154599,3.0717602],[20.9308813,3.1019991],[20.7849231,3.2487052],[20.7233669,3.1771027],[20.7032842,3.0818755],[20.7130879,2.9991636],[20.7201107,2.916445],[20.7553893,2.8432244],[20.8094461,2.7221209],[20.9034117,2.566185],[20.7806883,2.4407595],[20.7251963,2.4467854],[20.6378896,2.4357691],[20.561223,2.4242818],[20.4858795,2.4351007],[20.3649235,2.4352506],[20.2523862,2.414549],[20.1628424,2.3621512],[20.0880298,2.2878304],[20.0137314,2.1824175],[19.9440753,2.1062204],[19.9084496,2.0118094],[19.8332306,1.944945],[19.21536,1.6223799],[19.5624302,1.5350083],[20.1112776,1.7561396],[20.5080433,1.6740116],[20.7065268,1.5190211],[20.7784974,1.2842186],[20.7824986,1.165642],[20.8215313,1.1731864],[20.8517841,1.1767353],[20.8933717,1.1829863],[20.9322566,1.1808085],[20.9633565,1.176937],[21.0023189,1.1842182],[21.1744933,0.8879936],[21.605864,0.7277245],[22.010594,0.9502264],[21.8833812,1.3236538],[22.177759,1.761945],[22.4156164,1.8077662],[22.3807692,2.046755],[22.6599998,2.1019399],[22.8586023,2.0481233],[22.9291604,2.1421534],[23.0052585,2.2066816],[23.1277655,2.1398232],[23.3264714,2.1410311],[23.3481138,2.264845],[23.4554022,2.2018931],[23.5724731,2.3965396]]]}},{"type":"Feature","properties":{"shapeName":"Nord-Ubangi","shapeISO":"CD-NU"},"geometry":{"type":"Polygon","coordinates":[[[22.4334008,4.1281155],[22.0828738,4.2187059],[21.8590045,4.2467352],[21.6983433,4.3034378],[21.5390146,4.2535881],[21.2819703,4.3447947],[21.1759564,4.3058173],[20.9933328,4.4321428],[20.7969172,4.4229934],[20.6109065,4.4116501],[20.5085414,4.4811359],[20.4413592,4.6458354],[20.283634,4.7775906],[20.1728163,4.8919773],[19.9648197,4.9822064],[19.7957749,5.1031584],[19.5020489,5.1356526],[19.3460364,5.0687859],[19.1269613,4.9479184],[19.0160718,4.7897067],[19.0530342,4.7734728],[19.0795988,4.7679345],[19.113282,4.7501058],[19.1465843,4.7213117],[19.1960228,4.6916181],[19.2243255,4.678562],[19.3264398,4.6426831],[19.5044956,4.5952874],[19.3551228,4.0974923],[19.4082499,3.9129638],[19.4266793,3.9511034],[19.4639513,3.9529229],[19.4641015,3.9923958],[19.5010543,4.0604547],[19.5465875,4.0643502],[19.5943522,4.0639221],[19.6461511,4.0797179],[19.6796679,4.0774491],[19.7159743,4.0625523],[19.7562503,4.080574],[19.7992515,4.0874231],[19.8860317,4.0714455],[19.9843922,3.9218524],[20.1664925,3.5976124],[20.282383,3.2434223],[20.358942,2.8898723],[20.7244532,3.1889927],[20.7849231,3.2487052],[20.9154013,3.117974],[21.144811,2.9224358],[21.1898015,3.1441506],[21.2414526,3.1171619],[21.3389563,3.0436256],[21.4321684,2.9738557],[21.5020346,2.9409406],[21.6582465,2.9275686],[21.6915488,2.9309974],[21.7361807,2.9328832],[21.7878508,2.9239684],[21.8273329,2.9136821],[21.866815,2.9037386],[21.9088721,2.9088818],[21.9523703,2.9084593],[21.987805,2.91462],[22.019192,2.9227193],[22.0536416,2.9343269],[22.0863341,2.945784],[22.1233591,2.9530823],[22.1566772,2.9616421],[22.191387,2.9681626],[22.2453581,2.9831401],[22.2937024,3.0020513],[22.3285583,3.0193534],[22.3881625,3.0127271],[22.5271224,3.0964645],[22.6172884,3.3632583],[22.9655991,3.53528],[23.3143997,3.6358299],[23.5043523,3.8207276],[23.3644482,3.8082241],[23.1637761,3.8542978],[23.0609509,3.8673145],[22.7614002,3.9180601],[22.5249996,4.11694],[22.4334008,4.1281155]]]}},{"type":"Feature","properties":{"shapeName":"Tshuapa","shapeISO":"CD-TU"},"geometry":{"type":"Polygon","coordinates":[[[22.3724162,1.7104323],[21.8658294,1.3289342],[21.8635693,0.865101],[21.4128493,0.800194],[21.0083807,1.1847867],[20.9619447,1.1748399],[20.9060375,1.179881],[20.858238,1.1772999],[20.8171078,1.1795957],[20.7610018,1.1799687],[20.6971698,1.1748514],[20.6233084,1.1992131],[20.551214,1.235008],[20.4497828,0.6933147],[20.5633106,0.22165],[20.4358997,-0.10691],[20.3173716,-0.3489009],[20.2102669,-0.2160427],[20.0915839,-0.2376045],[19.9047218,-0.2461717],[19.9662889,-0.3272788],[20.0122429,-0.3871368],[20.086772,-0.4288153],[20.1789519,-0.4987056],[20.1651641,-0.582814],[20.2091372,-0.6412618],[20.2520015,-0.6977768],[20.3027398,-0.7517868],[20.3582622,-0.7718696],[20.1143494,-1.03501],[19.6792908,-1.0687],[19.5331593,-1.33477],[19.6830997,-1.69028],[20.229084,-2.0369664],[20.737772,-2.0542478],[21.2292858,-2.5271342],[21.3017063,-2.4824667],[21.3528241,-2.5156353],[21.4067296,-2.519599],[21.4689498,-2.5309303],[21.5209652,-2.5498861],[21.5640097,-2.5828851],[21.6195806,-2.6236521],[21.6660084,-2.6576492],[21.819191,-2.5661971],[22.2644005,-2.46472],[22.5207996,-1.95611],[22.8250008,-1.8608299],[23.2702997,-2.0145969],[23.6699203,-2.0250663],[23.95351,-1.8516412],[24.2125074,-1.7170711],[24.3177128,-1.34569],[23.8211847,-1.140461],[23.549673,-0.73568],[23.5873759,-0.4823124],[22.9500063,-0.406005],[22.9936008,0.375],[22.9559561,0.6252375],[22.9133432,0.665151],[22.9020997,0.7050388],[22.879065,0.7461304],[22.8731838,0.785531],[22.8725133,0.8305185],[22.8482735,0.8772017],[22.8425204,0.9190395],[22.8382217,0.9724074],[22.8198335,1.0249841],[22.7901228,1.0654734],[22.7835091,1.1159317],[22.7551402,1.1609327],[22.7386315,1.2052603],[22.7068686,1.2563438],[22.6760602,1.3021862],[22.6518988,1.3552582],[22.5966453,1.4064413],[22.5524895,1.444368],[22.4933374,1.4749193],[22.435407,1.4913378],[22.3772181,1.521444],[22.3306171,1.5080677],[22.267816,1.5824736],[22.3724162,1.7104323]]]}},{"type":"Feature","properties":{"shapeName":"Équateur","shapeISO":"CD-EQ"},"geometry":{"type":"Polygon","coordinates":[[[19.9034142,2.0013247],[19.4233131,2.0254824],[19.0979519,2.1076424],[18.7581825,1.9665623],[18.4057827,1.9330523],[18.077778,1.728889],[17.9473368,1.2460103],[17.8405634,0.924375],[17.8719774,0.6001358],[17.948333,0.347222],[17.6767127,-0.1677951],[17.656389,-0.636667],[17.3439395,-0.9901203],[16.953333,-1.166944],[16.74,-1.428056],[16.555833,-1.814444],[16.8806,-1.86694],[17.0489,-1.81972],[17.46067,-1.56021],[17.8186,-1.40667],[18.1256,-1.18417],[18.4264,-1.22639],[18.7689,-1.23889],[18.8164,-1.05667],[18.8314,-0.88861],[18.9869003,-0.73528],[19.0835991,-0.99556],[19.3556004,-1.41],[19.5331593,-1.33477],[19.6037006,-0.97943],[19.6763496,-1.05743],[19.8935509,-1.1332901],[20.1092701,-1.0441099],[20.2572823,-0.8648714],[20.3621745,-0.7835014],[20.3402118,-0.7683946],[20.3059077,-0.7552487],[20.295587,-0.7293544],[20.2643062,-0.711881],[20.2282804,-0.7039956],[20.2057261,-0.6617251],[20.1964853,-0.6275086],[20.1914476,-0.5947154],[20.1695184,-0.5659225],[20.1710001,-0.5372776],[20.1609605,-0.4940908],[20.1227441,-0.4377744],[20.0760421,-0.42816],[20.040261,-0.3942553],[20.0041518,-0.371803],[19.996013,-0.3423186],[19.9612933,-0.3276848],[19.9171743,-0.2995991],[19.9047218,-0.2461717],[19.9569675,-0.2090482],[20.0817247,-0.2217386],[20.1542076,-0.2801464],[20.1759343,-0.2273636],[20.2804614,-0.2463778],[20.2994176,-0.3325636],[20.3761022,-0.34393],[20.3609505,-0.13361],[20.5722599,-0.02626],[20.6210709,0.12326],[20.3956203,0.29944],[20.369813,0.4823499],[20.4311348,0.8348886],[20.5100212,1.1271745],[20.5694754,1.2192832],[20.5995321,1.208358],[20.6296892,1.1963495],[20.6589253,1.1907502],[20.7041708,1.1734939],[20.7320401,1.1729607],[20.7634101,1.2454904],[20.758313,1.322131],[20.7016336,1.5381793],[20.5704148,1.666927],[20.4047086,1.6661754],[20.130493,1.7565811],[19.78393,1.6356555],[19.4951693,1.4930833],[19.2118702,1.5650701],[19.7751907,1.899946],[19.8445947,1.9453221],[19.9013141,1.975358],[19.9034142,2.0013247]]]}},{"type":"Feature","properties":{"shapeName":"Haut-Katanga","shapeISO":"CD-HK"},"geometry":{"type":"Polygon","coordinates":[[[25.4922705,-11.7082938],[25.6197791,-11.7326024],[25.7804235,-11.8284113],[25.9496925,-11.8841047],[26.1021901,-11.9402715],[26.3027511,-11.947529],[26.5054925,-11.9544878],[26.6504957,-11.988711],[26.819525,-11.9869995],[26.9609677,-11.9158545],[27.0240352,-11.7412752],[27.0371889,-11.6033631],[27.2202513,-11.6280565],[27.2626333,-11.7997223],[27.4346846,-11.9099158],[27.5027825,-12.0792735],[27.6249528,-12.2521459],[27.7687429,-12.2746143],[27.9278327,-12.2514904],[28.0388144,-12.3504981],[28.1417085,-12.415065],[28.3060271,-12.4172694],[28.4469294,-12.5190436],[28.5242219,-12.6280566],[28.4757968,-12.7473927],[28.6027158,-12.8476591],[28.7444856,-12.9244158],[28.8268772,-13.0802522],[28.8966212,-13.1559343],[28.961744,-13.3751553],[29.1195442,-13.3675114],[29.2440687,-13.3968617],[29.444895,-13.3109764],[29.6684785,-13.2423708],[29.6166192,-13.3741122],[29.7706146,-13.436341],[29.7224,-12.2054489],[29.606792,-12.2051843],[29.4591787,-12.3092565],[29.3823934,-12.4148254],[29.1753517,-12.3728042],[29.0083158,-12.3086107],[28.7620935,-12.0105505],[28.5621261,-11.9003953],[28.4417319,-11.7906906],[28.389601,-11.5172641],[28.4719322,-11.2850252],[28.5141338,-10.9633264],[28.6662913,-10.7187249],[28.6484192,-10.5346469],[28.6121152,-10.2865649],[28.638711,-10.0527859],[28.6850217,-9.8153506],[28.6132837,-9.6316099],[28.5718717,-9.5501765],[28.5172363,-9.4026192],[28.5043617,-9.4063449],[28.5234161,-9.4766194],[28.5500236,-9.5651616],[28.4430785,-9.5262262],[28.3302186,-9.3590868],[28.3521913,-9.2152568],[28.4613523,-8.9974924],[28.6466117,-8.782263],[28.8000206,-8.6054439],[29.5668602,-8.1147299],[28.9851208,-7.7859201],[28.5441093,-7.8631701],[27.6948795,-8.1139698],[27.0689697,-8.5737896],[26.7270036,-8.6826294],[26.6986591,-8.8653462],[26.6524762,-9.0165731],[26.5719678,-9.0799777],[26.4928457,-9.1607797],[26.4671771,-9.234914],[26.4893353,-9.3181959],[26.4519364,-9.472434],[26.7740402,-9.9222498],[27.0226097,-10.4817104],[26.3694496,-11.1216297],[25.86322,-11.16442],[25.4922705,-11.7082938]]]}},{"type":"Feature","properties":{"shapeName":"Haut-Lomami","shapeISO":"CD-HL"},"geometry":{"type":"Polygon","coordinates":[[[27.7940292,-8.1334801],[27.6816292,-7.6984701],[27.1913795,-7.5996399],[26.56563,-7.4214602],[26.3839615,-7.26256],[26.3815138,-7.2213641],[26.3944354,-7.1664246],[26.2992592,-6.9867501],[26.0241909,-6.6961699],[26.1438503,-6.2617302],[25.9512793,-6.2250326],[25.7489461,-6.2291564],[25.4996539,-6.3349774],[25.3734669,-6.3762723],[25.2693813,-6.433669],[25.3230692,-6.4917729],[25.3857791,-6.5440457],[25.417735,-6.569941],[25.4722775,-6.6477361],[25.4412103,-6.7162711],[25.424355,-6.7603663],[25.3765841,-6.7970339],[25.2777996,-6.7505598],[24.9060993,-6.7213898],[24.8381963,-6.8334913],[24.8059552,-6.8640311],[24.7824056,-6.8920695],[24.7424712,-6.8984269],[24.7277368,-6.92854],[24.7056453,-6.9438354],[24.6821192,-6.9568504],[24.6642178,-6.9534448],[24.6499154,-6.9849407],[24.3467391,-7.0580949],[24.3121689,-7.0304177],[24.2696568,-7.0138361],[24.2283025,-7.0152266],[24.2221552,-6.9511993],[24.188177,-6.9125277],[24.149658,-6.920636],[24.1335225,-6.9993063],[24.1297467,-7.046436],[24.0515211,-7.1042655],[23.9964719,-7.1784305],[23.9679356,-7.2362635],[23.9703874,-7.316557],[23.9803998,-7.390061],[23.9635416,-7.4707028],[23.9313806,-7.532303],[23.9328061,-7.6277771],[23.9335798,-7.6872431],[23.9469667,-7.7673854],[23.9605921,-7.8288978],[23.9372397,-7.9154026],[23.7705582,-7.9681338],[23.7181892,-8.1173],[23.6553707,-8.6999903],[24.2305298,-8.9817104],[24.1658497,-9.4094896],[24.03963,-9.91027],[24.41551,-9.99338],[24.93742,-10.01312],[25.3966103,-9.8132896],[25.6055508,-9.48318],[26.2309303,-9.6308002],[26.4585233,-9.4631499],[26.4714598,-9.3642801],[26.4939171,-9.2955104],[26.4904586,-9.2458756],[26.4616698,-9.2135978],[26.4871056,-9.1872752],[26.5081762,-9.1515819],[26.5472816,-9.1024084],[26.6066025,-9.064011],[26.6425977,-9.0287813],[26.675772,-8.9826287],[26.688872,-8.8667669],[26.7190621,-8.7509456],[26.7286036,-8.6804388],[26.7530798,-8.6691953],[27.0660305,-8.4990301],[27.4399509,-8.1447096],[27.7940292,-8.1334801]]]}},{"type":"Feature","properties":{"shapeName":"Kongo-Central","shapeISO":"CD-BC"},"geometry":{"type":"MultiPolygon","coordinates":[[[[12.48056875,-6.001707420858748],[12.4786194,-6.001038],[12.4761732,-6.0029587],[12.4717079,-5.9959075],[12.4707306,-5.9981467],[12.4715853,-6.0012955],[12.4654444,-6.0024892],[12.4659593,-6.0041964],[12.4704225,-6.0069279],[12.4702509,-6.0081229],[12.4673326,-6.0094887],[12.4642427,-6.0091472],[12.4633844,-6.014098],[12.4673326,-6.016488],[12.4752291,-6.0115373],[12.4820097,-6.0060743],[12.48056875,-6.001707420858748]]],[[[12.48056875,-5.985156786226608],[12.477289,-5.9857583],[12.4716242,-5.9823438],[12.4642427,-5.9825145],[12.4503382,-5.9845633],[12.433687,-5.9890021],[12.4252756,-5.992758],[12.4142893,-6.0018063],[12.4102994,-6.007328],[12.4105914,-6.0123245],[12.4135085,-6.0137273],[12.4130876,-6.0202438],[12.4153192,-6.0257066],[12.4178942,-6.0245116],[12.4216707,-6.0192195],[12.4275072,-6.0205852],[12.4287088,-6.0190488],[12.4261339,-6.0149516],[12.4312837,-6.0127323],[12.4295671,-6.0064157],[12.4319704,-6.0045378],[12.433172,-6.0052207],[12.4340303,-6.0082936],[12.4330004,-6.0060743],[12.4309404,-6.0057328],[12.4303296,-6.0080651],[12.4319704,-6.012903],[12.4275072,-6.015293],[12.4333437,-6.0212681],[12.4402101,-6.0236581],[12.4441583,-6.0193902],[12.4527414,-6.0146102],[12.4523981,-6.0111958],[12.4496254,-6.0081922],[12.4499778,-6.0041665],[12.4503643,-6.0080536],[12.4522342,-6.0102007],[12.456048,-6.0053631],[12.4586398,-6.0049919],[12.4558385,-6.0033753],[12.4566038,-6.0005686],[12.4565108,-6.0029688],[12.4592719,-6.0044875],[12.4587277,-6.0059218],[12.4564059,-6.0060389],[12.4532135,-6.010769],[12.4534281,-6.012903],[12.4606378,-6.0130737],[12.4632128,-6.0076108],[12.4678476,-6.0086351],[12.4681909,-6.00744],[12.4644144,-6.0030013],[12.4643208,-5.9997208],[12.4613245,-6.0015929],[12.4592216,-6.0006966],[12.4611099,-5.9978797],[12.4570759,-5.9956176],[12.4575479,-5.9941665],[12.4574187,-5.9953474],[12.4615145,-5.9976305],[12.4602727,-6.0011052],[12.4641021,-5.9990124],[12.465291,-6.0009527],[12.4708378,-6.0006822],[12.4701729,-5.9964978],[12.4728815,-5.9948324],[12.4733724,-5.9984471],[12.4756949,-6.0002699],[12.4741133,-5.9983065],[12.4746202,-5.9975715],[12.4779783,-5.996544],[12.4785632,-5.9984676],[12.4810296,-5.9971804],[12.4788339,-5.9989894],[12.4775894,-5.9971115],[12.4748428,-5.9986906],[12.4765594,-5.9995869],[12.4764307,-6.0025745],[12.4796077,-6.0001892],[12.4823025,-6.0028692],[12.4824486,-6.0059963],[12.4898203,-6.0038549],[12.4944551,-5.9944653],[12.4901636,-5.9886607],[12.4893053,-5.9831974],[12.4850138,-5.9814902],[12.48056875,-5.985156786226608]]],[[[12.566,-6.000171],[12.566261,-5.999271],[12.566502,-6.002878],[12.568806,-6.005465],[12.567261,-6.005715],[12.566995,-6.007775],[12.565714,-6.006481],[12.561567,-6.013417],[12.560023,-6.013411],[12.559523,-6.01006],[12.559501,-6.014954],[12.557443,-6.014945],[12.557949,-6.01675],[12.559753,-6.016114],[12.560776,-6.017535],[12.562328,-6.015739],[12.565929,-6.016013],[12.566705,-6.014986],[12.565161,-6.015237],[12.565425,-6.013692],[12.564134,-6.014717],[12.564398,-6.013173],[12.565427,-6.013177],[12.564918,-6.011887],[12.566974,-6.012411],[12.569064,-6.005466],[12.572415,-6.003935],[12.573954,-6.004972],[12.573195,-6.002135],[12.568323,-5.998507],[12.562664,-5.997967],[12.564729,-5.996688],[12.567811,-5.997732],[12.568345,-5.993356],[12.566805,-5.992576],[12.569119,-5.992972],[12.572989,-5.990543],[12.572468,-5.992086],[12.574014,-5.991578],[12.575564,-5.990039],[12.574537,-5.989519],[12.580714,-5.98916],[12.582005,-5.988007],[12.580984,-5.986199],[12.57866,-5.988249],[12.578665,-5.986961],[12.575842,-5.985404],[12.577372,-5.988501],[12.575576,-5.987463],[12.574799,-5.98849],[12.573525,-5.985779],[12.573516,-5.987712],[12.572233,-5.986933],[12.572739,-5.988996],[12.571707,-5.989507],[12.570945,-5.987185],[12.57068,-5.988987],[12.567852,-5.988459],[12.56913,-5.990526],[12.567077,-5.989229],[12.566553,-5.991287],[12.565788,-5.989738],[12.563727,-5.990502],[12.562445,-5.989466],[12.562697,-5.990625],[12.56142,-5.988431],[12.561408,-5.991264],[12.559609,-5.990741],[12.559859,-5.992288],[12.557806,-5.991248],[12.558443,-5.992539],[12.557282,-5.993306],[12.558565,-5.994085],[12.562817,-5.992558],[12.560356,-5.996411],[12.559074,-5.995375],[12.559575,-5.998469],[12.557515,-5.998717],[12.559574,-5.998726],[12.559948,-6.001304],[12.557246,-6.001292],[12.556978,-6.003866],[12.555692,-6.003603],[12.555171,-6.005146],[12.554144,-6.004626],[12.555435,-6.003602],[12.55107,-6.001521],[12.55159,-6.000493],[12.547727,-6.001249],[12.550301,-6.000874],[12.552086,-6.004488],[12.554912,-6.005403],[12.562124,-6.003889],[12.56149,-6.001568],[12.561889,-5.998865],[12.561623,-6.000796],[12.562908,-6.001059],[12.562136,-6.001056],[12.562767,-6.003634],[12.561864,-6.004403],[12.563151,-6.004151],[12.566005,-5.999012],[12.566,-6.000171]]],[[[12.611574,-5.992644],[12.61131,-5.994318],[12.609255,-5.993536],[12.609264,-5.991475],[12.607466,-5.990694],[12.606436,-5.990947],[12.606682,-5.993524],[12.604711,-5.993427],[12.604647,-5.988106],[12.602945,-5.994796],[12.605636,-5.997255],[12.618502,-5.997053],[12.619791,-5.996415],[12.619683,-5.99152],[12.623172,-5.988187],[12.616995,-5.988675],[12.615953,-5.991504],[12.611574,-5.992644]]],[[[12.739454,-5.993702],[12.748494,-5.985366],[12.747453,-5.988196],[12.74462,-5.988957],[12.746416,-5.990253],[12.744475,-5.992821],[12.752071,-5.991564],[12.754692,-5.979982],[12.744395,-5.980841],[12.743615,-5.983028],[12.742848,-5.981737],[12.740787,-5.982243],[12.740515,-5.985849],[12.734324,-5.989688],[12.73044,-5.995597],[12.733011,-5.995994],[12.739454,-5.993702]]],[[[12.7582848,-5.945257],[12.7582848,-5.94052],[12.7537411,-5.9458048],[12.7545467,-5.9416156],[12.7528711,-5.9392632],[12.7509698,-5.9388765],[12.7470384,-5.9415834],[12.7401424,-5.9519919],[12.736353,-5.96548],[12.739577,-5.963689],[12.739847,-5.960599],[12.7421067,-5.9600894],[12.7450452,-5.9556496],[12.7468818,-5.9564641],[12.7485907,-5.9542283],[12.7498683,-5.9563044],[12.7449175,-5.9589555],[12.7495649,-5.9579654],[12.7507307,-5.9550587],[12.7523277,-5.956512],[12.7542123,-5.9507787],[12.7547872,-5.9540686],[12.7536852,-5.9556017],[12.7577258,-5.9525354],[12.7568793,-5.9551067],[12.7536213,-5.9564482],[12.7585722,-5.9547553],[12.7600894,-5.9524875],[12.7582848,-5.945257]]],[[[12.874932,-5.861428],[12.861885,-5.875806],[12.856211,-5.879262],[12.848229,-5.880777],[12.837176,-5.878158],[12.834593,-5.880854],[12.828146,-5.884564],[12.814759,-5.886573],[12.81113,-5.893387],[12.805202,-5.896197],[12.802741,-5.90031],[12.803377,-5.902116],[12.802094,-5.901338],[12.798734,-5.905189],[12.7973732,-5.9082954],[12.8007567,-5.908521],[12.7996933,-5.9097133],[12.7949885,-5.911969],[12.7854179,-5.9122268],[12.7694023,-5.9194129],[12.7615717,-5.9268245],[12.7585426,-5.933785],[12.7602171,-5.9539248],[12.7564162,-5.9567676],[12.748942,-5.9589555],[12.7450612,-5.9621656],[12.7635482,-5.9617825],[12.7932956,-5.9676432],[12.811141,-5.955992],[12.825058,-5.950508],[12.832036,-5.942677],[12.83503,-5.933672],[12.839425,-5.928278],[12.840687,-5.924249],[12.8426063,-5.9240392],[12.8452455,-5.9182126],[12.8522837,-5.9137731],[12.86149,-5.911488],[12.87594,-5.90098],[12.887272,-5.898189],[12.9039101,-5.8968045],[12.911458,-5.89828],[12.920443,-5.903854],[12.924044,-5.904253],[12.953902,-5.901787],[12.963691,-5.898732],[12.971429,-5.893607],[12.972857,-5.889876],[12.978153,-5.884227],[12.9794847,-5.8847452],[13.000212,-5.867558],[13.004722,-5.86577],[13.000869,-5.863953],[12.987236,-5.862744],[12.966616,-5.872719],[12.957586,-5.879385],[12.950628,-5.882193],[12.945997,-5.882176],[12.942399,-5.881004],[12.93907,-5.876612],[12.908492,-5.865677],[12.892031,-5.864197],[12.884838,-5.861208],[12.877382,-5.86002],[12.87352,-5.86065],[12.874932,-5.861428]]],[[[12.786665,-5.899215],[12.798792,-5.890504],[12.801132,-5.88433],[12.788778,-5.88544],[12.777945,-5.892353],[12.771508,-5.893487],[12.766641,-5.8987419],[12.7679731,-5.9079323],[12.7791492,-5.9045966],[12.786665,-5.899215]]],[[[12.810396,-5.883851],[12.807013,-5.893499],[12.811738,-5.892012],[12.814761,-5.886058],[12.819915,-5.884017],[12.824801,-5.884551],[12.829953,-5.883025],[12.832918,-5.881363],[12.8337,-5.878789],[12.820715,-5.876806],[12.810396,-5.883851]]],[[[12.945039,-5.862849],[12.938099,-5.860762],[12.930637,-5.860992],[12.924192,-5.864447],[12.934218,-5.866674],[12.94348,-5.866837],[12.956848,-5.870106],[12.967934,-5.864092],[12.958681,-5.861352],[12.95301,-5.864295],[12.945039,-5.862849]]],[[[12.852161,-5.861727],[12.864019,-5.855718],[12.863638,-5.854428],[12.851934,-5.853997],[12.84549,-5.857064],[12.840068,-5.861938],[12.831491,-5.861607],[12.828217,-5.866144],[12.832585,-5.867835],[12.840302,-5.868122],[12.852161,-5.861727]]],[[[12.921625,-5.862891],[12.928578,-5.860984],[12.93039,-5.858028],[12.9249823,-5.8581919],[12.915475,-5.856169],[12.910187,-5.859499],[12.916481,-5.862357],[12.921625,-5.862891]]],[[[12.944538,-5.859111],[12.95329,-5.857983],[12.968976,-5.860359],[12.977603,-5.858201],[12.966691,-5.851848],[12.940965,-5.850981],[12.931722,-5.845794],[12.906524,-5.841578],[12.895455,-5.843212],[12.8908,-5.849378],[12.90826,-5.858848],[12.918051,-5.855148],[12.925414,-5.857921],[12.934513,-5.856368],[12.943775,-5.856532],[12.940944,-5.856779],[12.944538,-5.859111]]],[[[15.1282208,-4.444149],[14.8550086,-4.7863937],[14.4937473,-4.8458274],[14.4031684,-4.7454652],[14.3669716,-4.5353631],[14.405357,-4.3745898],[14.3976488,-4.2783126],[14.3169871,-4.3134357],[14.2446073,-4.3638837],[14.1584397,-4.3909773],[14.0501109,-4.4099039],[13.9739132,-4.4881725],[13.9231774,-4.5167426],[13.8574701,-4.4786182],[13.815249,-4.4254335],[13.7484144,-4.4437501],[13.7221911,-4.4915158],[13.7288098,-4.5900651],[13.7220711,-4.680891],[13.6911478,-4.7469064],[13.6192827,-4.7356043],[13.5467164,-4.7682755],[13.4948563,-4.7911926],[13.4117204,-4.8733948],[13.394125,-4.881999],[13.2589398,-4.7366536],[13.1120036,-4.5892433],[13.1083747,-4.6697603],[12.9849829,-4.7048166],[12.910949,-4.7376272],[12.8457985,-4.7656457],[12.8114454,-4.8414624],[12.7523686,-4.8888842],[12.6613308,-4.9498797],[12.6044224,-5.0262017],[12.5521989,-5.0382201],[12.4752697,-5.1076981],[12.2079177,-5.764609],[12.3970777,-5.9985609],[12.435141,-5.979097],[12.530797,-5.932268],[12.62018,-5.906127],[12.630853,-5.937214],[12.645177,-5.956854],[12.658238,-5.971078],[12.679745,-5.996157],[12.683534,-5.98252],[12.728801,-5.956174],[12.910406,-5.835281],[13.100276,-5.877183],[13.4207399,-5.8686973],[13.616959,-5.872888],[14.065637,-5.845425],[14.13997,-5.842984],[14.183983,-5.843608],[14.213734,-5.867065],[14.278521,-5.860867],[14.346313,-5.888865],[16.196208,-5.7429895],[16.2134381,-5.4096963],[16.2306042,-5.1126061],[16.0022359,-4.9721378],[15.8655087,-4.8747877],[15.855755,-4.9300228],[15.854061,-4.991566],[15.8237848,-5.0274637],[15.6543567,-4.950019],[15.6500598,-4.9152741],[15.6400842,-4.8608819],[15.6499189,-4.8370784],[15.6734289,-4.7889531],[15.7008733,-4.746924],[15.6864499,-4.6913533],[15.6469933,-4.6641201],[15.6456451,-4.6066878],[15.5508125,-4.5649653],[15.4410087,-4.5326237],[15.3910893,-4.6171035],[15.3296265,-4.6436509],[15.2333514,-4.5551094],[15.1282208,-4.444149]]]]}},{"type":"Feature","properties":{"shapeName":"Kwango","shapeISO":"CD-KG"},"geometry":{"type":"Polygon","coordinates":[[[16.0959559,-5.865994],[16.433719,-5.8660374],[16.5769899,-5.9413432],[16.5994775,-6.0601648],[16.7300291,-6.1656731],[16.681349,-6.3744598],[16.7520351,-6.5226111],[16.8077119,-6.8004581],[16.9321664,-7.0211445],[16.9417794,-7.2269104],[17.1070893,-7.4240717],[17.2112878,-7.5697577],[17.3010014,-7.6811925],[17.3808586,-7.7768503],[17.447812,-7.8679105],[17.5322409,-8.0546944],[17.5566924,-8.1226244],[17.6089611,-8.1300993],[17.664293,-8.1100871],[17.7153409,-8.098406],[17.7994534,-8.1125707],[17.9573927,-8.0937512],[18.1007305,-8.049767],[18.1299934,-8.0354696],[18.300253,-7.9957502],[18.4072578,-8.0028939],[18.770792,-7.915611],[18.781549,-7.964675],[19.357273,-7.928708],[19.365033,-7.861992],[19.384467,-7.77627],[19.411694,-7.70546],[19.386017,-7.642263],[19.49451,-7.52727],[19.543481,-7.458938],[19.522847,-7.422412],[19.502367,-7.369218],[19.489082,-7.31626],[19.493492,-7.266564],[19.498509,-7.167522],[19.5629614,-7.0493084],[19.9640389,-6.9486878],[19.9045414,-6.8409558],[19.8189529,-6.7363847],[19.7225825,-6.6033132],[19.7053559,-6.4775122],[19.6950528,-6.3534985],[19.4449406,-6.2897249],[19.314999,-6.3736863],[19.297042,-6.2202617],[19.2911462,-6.1373764],[19.0131196,-6.261157],[18.9262231,-6.2456644],[18.8232455,-6.1967287],[18.6841365,-5.9864303],[18.4482241,-5.8338596],[18.2061622,-5.7899112],[18.1802433,-5.8877202],[18.12132,-5.7828404],[17.7998363,-5.7177241],[17.5232855,-5.6802633],[17.5194636,-5.5876327],[17.476937,-5.4942268],[17.4564305,-5.3897241],[17.4818388,-5.2369054],[17.5386599,-5.1190328],[17.4978525,-5.0077055],[17.5010568,-4.8806079],[17.5445831,-4.7697817],[17.620615,-4.6427004],[17.6732538,-4.5555638],[17.662141,-4.4462686],[17.7509266,-4.3756333],[17.3948307,-4.3867698],[16.6195107,-4.5756898],[16.2623793,-4.7624656],[16.2419595,-4.8540368],[16.2663044,-4.9397477],[16.2385006,-5.0549838],[16.2268277,-5.3820104],[16.1911,-5.7725],[16.0959559,-5.865994]]]}},{"type":"Feature","properties":{"shapeName":"Sankuru","shapeISO":"CD-SA"},"geometry":{"type":"Polygon","coordinates":[[[24.4123887,-1.7179482],[24.2097356,-1.729987],[24.010428,-1.7598191],[23.8391348,-1.8309669],[23.6699203,-2.0250663],[23.3451855,-2.0766147],[23.1672267,-1.9964983],[22.8477993,-1.8724999],[22.6564007,-1.8099999],[22.3213997,-1.94028],[22.2961006,-2.42028],[22.1522007,-2.2763901],[21.703123,-2.6672052],[21.7409078,-2.6692441],[21.7697978,-2.6720831],[21.8042226,-2.6713924],[21.8820947,-2.6875716],[22.0409179,-2.7446285],[22.0611,-3.32833],[22.0163994,-3.6594501],[22.0993996,-3.90639],[22.1046675,-4.0200748],[22.2686887,-3.9974376],[22.2734924,-4.0256926],[22.2953008,-4.0541835],[22.3187101,-4.0730314],[22.3551076,-4.0941678],[22.3802254,-4.1144384],[22.3996036,-4.1449507],[22.4185744,-4.1710516],[22.4464136,-4.1779871],[22.4792781,-4.1832376],[22.504022,-4.1963908],[22.5247935,-4.2018693],[22.7084109,-4.3195217],[22.9477997,-4.4994402],[23.1389008,-4.7755599],[23.0436001,-5.04917],[23.4329391,-5.250986],[23.7169216,-5.5556009],[23.7294999,-5.6693738],[23.7110962,-5.7722544],[23.7448382,-5.7732403],[23.7710963,-5.7796963],[23.8359801,-5.7469583],[23.8799536,-5.8140511],[23.9028704,-5.8485206],[23.9373606,-5.8380027],[24.1438352,-5.8247525],[24.2709103,-5.4984002],[24.7707806,-4.9800901],[24.9172679,-4.7692726],[24.8696871,-4.670141],[24.8790878,-4.6077249],[24.9159063,-4.5537549],[24.9766587,-4.4842577],[24.9967532,-4.41587],[25.0086244,-4.2883227],[25.0024817,-4.1868899],[24.9976381,-4.110103],[24.9549973,-4.0248581],[24.9116552,-3.9784008],[24.8618513,-3.9256358],[24.8151433,-3.8529828],[24.7634232,-3.8202034],[24.7384991,-3.7774068],[24.7696153,-3.7361637],[24.7943345,-3.6912828],[24.7838924,-3.6352712],[24.7591439,-3.6025424],[24.7773316,-3.5619175],[24.7800075,-3.5018412],[24.8405715,-3.3966602],[24.884844,-3.2921877],[24.9551242,-3.2282191],[25.0122168,-3.1449632],[24.9984744,-3.0733073],[24.9946978,-3.0407381],[25.0422459,-2.9046286],[25.103529,-2.7460349],[25.0480823,-2.5908499],[25.0467091,-2.4927562],[25.0585883,-2.4103597],[24.5706005,-2.21472],[24.4123887,-1.7179482]]]}},{"type":"Feature","properties":{"shapeName":"Sud-Ubangi","shapeISO":"CD-SU"},"geometry":{"type":"Polygon","coordinates":[[[20.7246274,3.1819397],[20.4276924,2.9194722],[20.1865826,2.9440224],[20.2825832,3.3124924],[20.173872,3.5543723],[20.1281223,3.8094723],[19.9478035,3.9981122],[19.8860317,4.0714455],[19.8104095,4.0869094],[19.7819137,4.0845122],[19.7487402,4.0797607],[19.7290206,4.0643074],[19.6895814,4.0637081],[19.6715569,4.0748807],[19.6519446,4.0813873],[19.6205306,4.0706001],[19.5756412,4.0607972],[19.5476604,4.0530062],[19.517448,4.0602407],[19.4802618,4.0238213],[19.4655177,3.9847111],[19.4517848,3.9536936],[19.4370219,3.9510605],[19.4273016,3.9390513],[19.4082499,3.9129638],[19.2890628,4.0090023],[19.4289628,4.2896023],[19.4641551,4.6218089],[19.3527469,4.6313906],[19.2798337,4.6749344],[19.2205221,4.6903831],[19.1974068,4.6900677],[19.1553176,4.7043426],[19.1428185,4.7314267],[19.1144622,4.7526291],[19.0909499,4.764588],[19.0671641,4.7635402],[19.0497512,4.7670524],[19.0129547,4.7644368],[18.9403277,4.6912942],[18.8803058,4.6126887],[18.7545037,4.3968002],[18.5987472,4.3687245],[18.5850143,4.2253305],[18.6498202,4.0212115],[18.5968036,3.8904139],[18.6041885,3.6211657],[18.634722,3.425833],[18.62,3.144167],[18.452778,2.878333],[18.358611,2.6575],[18.224722,2.418333],[18.093333,2.229444],[18.0758259,1.908841],[18.491003,1.9277923],[18.8721428,1.9719024],[19.1576328,2.1230423],[19.4892826,2.0012722],[19.9326069,2.0215413],[19.9403335,2.0664114],[19.9499207,2.1481269],[20.0137314,2.1824175],[20.0595087,2.2512106],[20.0993528,2.3074085],[20.1489255,2.3478191],[20.2293154,2.4082004],[20.270954,2.422245],[20.3368576,2.416543],[20.4207083,2.4226948],[20.4902621,2.4255979],[20.5381392,2.4144904],[20.5729656,2.4021045],[20.6331201,2.4385041],[20.6791782,2.4199777],[20.7355819,2.4168634],[20.7820958,2.4251099],[20.8422206,2.4996875],[20.9064333,2.5763424],[20.8331691,2.6796016],[20.7785424,2.7742658],[20.7553893,2.8432244],[20.725448,2.8905224],[20.7321817,2.94073],[20.7098668,2.9913],[20.7129586,3.0403202],[20.7096718,3.0959128],[20.7140911,3.1519962],[20.7246274,3.1819397]]]}},{"type":"Feature","properties":{"shapeName":"Tanganyika","shapeISO":"CD-TA"},"geometry":{"type":"MultiPolygon","coordinates":[[[[29.629737,-8.3955573],[30.5745,-8.2609999],[30.5805,-8.2307499],[30.5935,-8.1589999],[30.572,-8.1262499],[30.53825,-8.0824999],[30.4935,-8.0352499],[30.46175,-8.0089999],[30.418,-7.9722499],[30.38375,-7.9427499],[30.33675,-7.8904999],[30.30725,-7.8689999],[30.2745,-7.8302499],[30.272,-7.7674999],[30.23925,-7.7247499],[30.217,-7.6587499],[30.2175,-7.5539999],[30.21275,-7.5134999],[30.2165,-7.4729999],[30.19175,-7.3924999],[30.15925,-7.3444999],[30.15025,-7.2979999],[30.11475,-7.2329999],[30.05775,-7.1827499],[30.01175,-7.1477499],[29.9406371,-7.0922701],[29.8407278,-7.0758724],[29.7609145,-7.0189306],[29.7295,-6.9662499],[29.677,-6.9152499],[29.6518473,-6.8491726],[29.50525,-6.7102499],[29.4940759,-6.6571687],[29.49775,-6.5597499],[29.446,-6.5137499],[29.42225,-6.4824999],[29.404,-6.4067499],[29.373,-6.3422499],[29.348,-6.2832499],[29.331,-6.2007499],[29.2445,-6.1162499],[29.1933178,-6.00753],[29.1963067,-5.9165652],[29.3338398,-5.8180962],[29.3608603,-5.7332203],[29.3453056,-5.6472251],[29.3682619,-5.63206],[29.3867192,-5.6382438],[29.3593243,-5.5888896],[29.3436174,-5.5563576],[29.3196765,-5.5079626],[29.2866264,-5.4646067],[29.2344425,-5.3746033],[29.1986285,-5.3172302],[29.169,-5.2604999],[29.15525,-5.2139999],[29.14075,-5.1534999],[29.12,-5.1087499],[29.1175,-5.0439999],[29.1168352,-5.0094334],[26.2522506,-5.0395095],[26.1999921,-5.1651302],[26.154873,-5.2676439],[26.1147003,-5.4541702],[26.0798271,-5.6484924],[26.1632996,-5.8841701],[26.1543999,-6.1522198],[26.1322803,-6.4441299],[26.1075993,-6.71839],[26.2992592,-6.9867501],[26.3971066,-7.1603637],[26.4015172,-7.1923727],[26.3788242,-7.2417129],[26.40061,-7.2954302],[26.73209,-7.4756198],[27.2550907,-7.5295],[27.6816292,-7.6984701],[27.8143005,-8.0312099],[28.1505394,-8.2595596],[28.5441093,-7.8631701],[28.6095791,-7.6107998],[28.9009991,-7.8003602],[29.36022,-7.7072902],[29.6542301,-7.9895802],[29.629737,-8.3955573]]],[[[29.3978364,-5.6349501],[29.3999731,-5.6380029],[29.3997243,-5.6413372],[29.403145,-5.6515056],[29.4067865,-5.6545564],[29.4081989,-5.6578247],[29.4072198,-5.6607975],[29.4032734,-5.6574034],[29.4031109,-5.6640997],[29.4006071,-5.665641],[29.4024649,-5.6776239],[29.4068189,-5.6795423],[29.4062892,-5.6814549],[29.4085503,-5.6828963],[29.4125425,-5.6804409],[29.4114932,-5.6780791],[29.4092462,-5.6774641],[29.4116116,-5.6750065],[29.4117079,-5.670786],[29.4132568,-5.6716884],[29.4144726,-5.6700932],[29.4135758,-5.6645929],[29.4150283,-5.6649981],[29.4176305,-5.6725828],[29.4194302,-5.6716245],[29.4199377,-5.6674279],[29.4223493,-5.6676934],[29.4213361,-5.6617738],[29.4172674,-5.6578986],[29.4184611,-5.6577828],[29.4180137,-5.6533185],[29.4199739,-5.6520427],[29.4160515,-5.6481674],[29.4157907,-5.6441803],[29.413971,-5.6431001],[29.4106867,-5.6357068],[29.4086102,-5.6347704],[29.408861,-5.6397559],[29.4072138,-5.6391749],[29.4026876,-5.6289103],[29.3997163,-5.6283493],[29.4008238,-5.6302041],[29.3984403,-5.63146],[29.3978364,-5.6349501]]]]}},{"type":"Feature","properties":{"shapeName":"Kasai","shapeISO":"CD-KS"},"geometry":{"type":"Polygon","coordinates":[[[21.0052978,-2.5325767],[20.6560993,-3.30722],[20.6237438,-4.1845295],[20.4337147,-4.2937498],[20.2409359,-4.3787618],[20.0297198,-4.3127146],[20.0897807,-4.456417],[20.0796091,-4.5612322],[20.0475505,-4.7413601],[20.108651,-4.9332569],[20.1799175,-5.1064049],[20.1980964,-5.2291576],[20.1332084,-5.3937576],[20.1364699,-5.5569462],[20.1777506,-5.6806694],[20.1070261,-5.8437777],[19.9339274,-6.0054789],[19.8163393,-6.0759814],[19.7142008,-6.1461333],[19.6919715,-6.2731534],[19.6915126,-6.3368601],[19.7153435,-6.4205818],[19.7153893,-6.4907441],[19.7039333,-6.5483152],[19.755316,-6.6411668],[19.8106875,-6.728472],[19.862731,-6.7849222],[19.9325376,-6.8692929],[19.9573931,-6.9275855],[19.9752279,-6.9915527],[20.310364,-6.943517],[20.6216778,-6.9399664],[20.5973024,-7.0273405],[20.565604,-7.1089786],[20.5552051,-7.1846467],[20.5559186,-7.281002],[21.7203244,-7.1844079],[21.6669069,-7.0890101],[21.5819057,-7.0164305],[21.5131588,-6.9244867],[21.4064958,-6.832861],[21.5596423,-6.7579128],[21.678239,-6.6298711],[21.6050676,-6.4504279],[21.6170686,-5.9388374],[21.9077101,-5.7843669],[21.8081915,-5.4569011],[21.6895735,-5.3993107],[21.6426622,-5.3052738],[21.9012909,-5.0648999],[22.2832108,-4.6915202],[22.5257007,-4.2010704],[22.4965744,-4.1951602],[22.4685036,-4.1839766],[22.4245044,-4.1730007],[22.4051647,-4.1501876],[22.3802254,-4.1144384],[22.3488567,-4.0907082],[22.3091729,-4.0652818],[22.2836039,-4.0383455],[22.2674198,-4.0017321],[22.1118773,-4.0255544],[22.1392002,-3.91028],[21.9710999,-3.58972],[22.1947002,-2.9911101],[21.9481427,-2.7121008],[21.8071366,-2.6720338],[21.7689581,-2.6743526],[21.729569,-2.6723503],[21.6935376,-2.663761],[21.6660084,-2.6576492],[21.6346064,-2.6392673],[21.593995,-2.610423],[21.5466453,-2.5690118],[21.5201483,-2.5519786],[21.4838371,-2.5396811],[21.4300522,-2.5171988],[21.3916848,-2.5164389],[21.3533268,-2.5108223],[21.3092337,-2.4925191],[21.2770804,-2.4741684],[21.0052978,-2.5325767]]]}},{"type":"Feature","properties":{"shapeName":"Kasai-Oriental","shapeISO":"CD-KE"},"geometry":{"type":"Polygon","coordinates":[[[23.7417725,-5.6590165],[23.6218099,-5.6590191],[23.4269499,-5.7585686],[23.3987102,-5.7856073],[23.3847728,-5.7683103],[23.403459,-5.739446],[23.417926,-5.7113392],[23.2963723,-5.759029],[23.0690316,-5.7496149],[22.9556588,-5.8224986],[22.9784806,-5.9156217],[22.979881,-6.0280495],[22.9935239,-6.0920065],[23.0328812,-6.180704],[23.088286,-6.1983728],[23.0688092,-6.2279058],[23.0641851,-6.2531398],[23.0439202,-6.2676427],[23.0325646,-6.2796207],[23.0754794,-6.3591851],[23.1455182,-6.3690081],[23.1405062,-6.3905264],[23.153217,-6.4218093],[23.1383908,-6.4396603],[23.144837,-6.4661046],[23.158936,-6.4795256],[23.1525567,-6.4997245],[23.1673298,-6.5219665],[23.170873,-6.5345498],[23.1731233,-6.5541302],[23.1825701,-6.5746105],[23.202322,-6.5927646],[23.3433907,-6.5460613],[23.3764549,-6.5364708],[23.4310486,-6.5374675],[23.4501873,-6.5578026],[23.4320896,-6.6150371],[23.4424051,-6.6579545],[23.7123255,-6.7619277],[23.7314014,-6.7221311],[23.7875952,-6.6764863],[23.7478269,-6.6441983],[23.7756096,-6.5827522],[23.7781068,-6.5189258],[23.7925427,-6.4859913],[23.8103419,-6.4461526],[23.8055172,-6.3995201],[23.8450815,-6.3651631],[23.8871613,-6.3896352],[23.9113878,-6.4115583],[23.934015,-6.40925],[23.952834,-6.4081652],[23.9693366,-6.4075875],[23.9827906,-6.4051939],[23.997294,-6.3953462],[24.0200937,-6.3987221],[24.0316836,-6.3929806],[24.0493084,-6.389518],[24.0704871,-6.3757796],[24.0821574,-6.3601029],[24.1010321,-6.3495439],[24.0873652,-6.3308433],[24.0614742,-6.2061556],[24.1390558,-6.1461197],[24.167936,-6.1163825],[24.1619078,-6.0801089],[24.1427689,-6.0717327],[24.116677,-6.0562789],[24.0985372,-6.0486973],[24.0736302,-6.0574298],[24.0549919,-6.0342608],[24.0238622,-6.033994],[24.0037215,-6.0243488],[24.0014564,-5.9416245],[23.9522647,-5.8266578],[23.9373606,-5.8380027],[23.9135766,-5.857216],[23.9019048,-5.8333914],[23.8809836,-5.8168476],[23.829341,-5.8045439],[23.816742,-5.7468088],[23.7740586,-5.7707922],[23.7588882,-5.7812414],[23.7448382,-5.7732403],[23.727957,-5.7684355],[23.709708,-5.7551329],[23.7236456,-5.6756811],[23.7417725,-5.6590165]]]}},{"type":"Feature","properties":{"shapeName":"Maniema","shapeISO":"CD-MA"},"geometry":{"type":"Polygon","coordinates":[[[24.4707881,-1.7546396],[25.0508174,-2.4006341],[25.0091152,-2.5649553],[25.0679951,-2.8658823],[25.020962,-3.0661079],[24.9859173,-3.1929743],[24.8982336,-3.3048696],[24.7895933,-3.5121867],[24.7594987,-3.60566],[24.7886697,-3.6897411],[24.7464433,-3.7878461],[24.7708047,-3.8431546],[24.8852198,-3.9580915],[24.9859651,-4.0535985],[24.9969885,-4.2146243],[24.9918412,-4.4223022],[24.9158479,-4.5572712],[24.8674555,-4.6675746],[24.9856892,-4.8436535],[28.7878597,-4.9913222],[28.7609037,-4.9076553],[28.6978235,-4.8090964],[28.6461461,-4.7014587],[28.3934511,-4.3037965],[28.1363515,-4.2240441],[28.0165131,-4.1723596],[27.9476885,-4.130699],[27.8609305,-4.1115945],[27.4952335,-3.981411],[27.3866045,-3.9353085],[27.3156637,-3.9172945],[27.2619966,-3.8983529],[27.2109514,-3.8975742],[27.1741596,-3.8573797],[27.116446,-3.7854977],[27.092229,-3.7000094],[27.110756,-3.5955342],[27.1311482,-3.5243096],[27.096179,-3.390535],[27.1261413,-3.2029645],[27.0641357,-3.0447084],[26.9186926,-2.7913499],[26.8241055,-2.3783332],[26.9139672,-2.1594563],[26.9784499,-2.1252461],[27.1159384,-2.2108932],[27.181559,-2.2279127],[27.2555838,-2.2325338],[27.4129684,-2.0182884],[27.5732803,-1.67495],[27.2767322,-1.1850426],[27.2784032,-1.0269219],[27.3920361,-0.9558091],[27.7047997,-0.92141],[27.4846992,-0.4825],[27.1937796,-0.4107695],[27.151242,-0.3756385],[27.1109805,-0.2984535],[27.0507653,-0.2636901],[26.8856852,-0.2291446],[26.7935788,-0.2945193],[26.6876424,-0.3330032],[26.675835,-0.420841],[26.5696762,-0.4093823],[26.5071887,-0.3717697],[26.4415825,-0.297356],[26.3623323,-0.2134939],[26.2755689,-0.1213823],[26.221188,-0.0703995],[26.1386175,-0.0318196],[26.09079,-0.0056014],[26.3932991,-0.48722],[26.1198023,-1.2531912],[26.0564267,-1.4650084],[25.8718095,-1.4279239],[25.7189455,-1.8653075],[25.6060738,-1.9092074],[25.3366377,-1.963336],[25.2544349,-1.9628423],[25.1503273,-1.9402618],[25.1141989,-1.7921636],[24.9396508,-1.7567915],[24.4707881,-1.7546396]]]}},{"type":"Feature","properties":{"shapeName":"North Kivu","shapeISO":"CD-NK"},"geometry":{"type":"Polygon","coordinates":[[[27.9589195,0.65873],[27.7559365,0.5437202],[27.8883762,0.4928074],[28.0020671,0.4820751],[28.0404585,0.4352697],[28.0585191,0.3684913],[28.0851219,0.2818343],[28.1533619,0.2148089],[28.151373,0.1185254],[28.1266134,0.0337806],[28.1248557,-0.0966103],[28.1374562,-0.1916596],[28.0898069,-0.2492808],[28.020665,-0.2865248],[27.8952999,-0.41722],[27.7490692,-0.85478],[27.4668188,-0.9113271],[27.3435646,-0.9459616],[27.2691335,-1.0171388],[27.3300617,-1.1139992],[27.2175932,-1.2081229],[27.5261993,-1.63034],[27.8154691,-2.0329393],[28.1184754,-2.0478419],[28.1592241,-2.0244299],[28.1495515,-1.9762295],[28.3271209,-1.9761644],[28.4987238,-1.8787027],[28.7003128,-1.828617],[28.7050105,-1.7796129],[28.9170047,-1.7422387],[29.0215186,-1.6205426],[29.0795332,-1.5955702],[29.1441089,-1.6386973],[29.2135937,-1.6816225],[29.2986246,-1.6064464],[29.5239651,-1.420417],[29.596223,-1.252404],[29.574939,-1.184724],[29.590205,-0.980551],[29.586073,-0.902782],[29.640995,-0.8220078],[29.6271554,-0.7944816],[29.6290684,-0.7582797],[29.6263852,-0.7268478],[29.6354477,-0.695287],[29.6506199,-0.653077],[29.6524728,-0.6044016],[29.6650364,-0.582354],[29.6538088,-0.5562041],[29.6723858,-0.5402861],[29.6828104,-0.4964144],[29.6532624,-0.4659927],[29.5665734,-0.6180779],[29.4676964,-0.6177346],[29.4391977,-0.6153289],[29.4166311,-0.659421],[29.3664703,-0.6929631],[29.3524949,-0.6054424],[29.3037404,-0.5786297],[29.3213314,-0.4795606],[29.3875051,-0.3852332],[29.470436,-0.2202679],[29.6193561,-0.1403157],[29.7311938,-0.0493336],[29.734302,-0.0181412],[29.7217616,0.0308775],[29.7182686,0.0750406],[29.7430733,0.1260386],[29.8117716,0.1643795],[29.9728177,0.5603994],[29.9581958,0.6487903],[29.9710079,0.7052857],[29.9779072,0.7445076],[29.9645427,0.7796671],[29.9824981,0.8291425],[29.953045,0.8162303],[29.9092859,0.8159245],[29.8699996,0.893118],[29.5988998,0.88278],[29.4083004,0.71],[29.2347152,0.6316215],[28.8299999,0.6325],[28.3502998,0.74083],[27.9589195,0.65873]]]}},{"type":"Feature","properties":{"shapeName":"South Kivu","shapeISO":"CD-SK"},"geometry":{"type":"Polygon","coordinates":[[[29.1221155783341,-5.008227399921812],[29.1075,-4.8452499],[29.105,-4.7552499],[29.11575,-4.6154999],[29.15775,-4.5347499],[29.21375,-4.4872499],[29.22025,-4.3452499],[29.24375,-4.2159999],[29.25975,-4.0914999],[29.198,-4.1764999],[29.15525,-4.3049999],[29.09475,-4.3152499],[29.09375,-4.2534999],[29.09375,-4.1722499],[29.089,-4.0439999],[29.1111403,-3.8938994],[29.1232996,-3.7308044],[29.1436279,-3.5990116],[29.1300642,-3.4319325],[29.2144642,-3.3342136],[29.2260574,-3.2306254],[29.2329215,-3.1574738],[29.2469847,-3.0962129],[29.2184262,-3.0220992],[29.1530075,-2.946564],[29.0750713,-2.8635294],[29.0126915,-2.820509],[28.9848541,-2.6953306],[28.9057034,-2.6651624],[28.8886613,-2.5055985],[28.9899197,-2.3259189],[29.235117,-1.6969106],[29.1650633,-1.6443237],[29.0871733,-1.609942],[29.025754,-1.61783],[28.8829582,-1.7287494],[28.6949449,-1.7705123],[28.6171582,-1.8802194],[28.3623688,-1.9276601],[28.1761283,-1.9768624],[28.155699,-2.0158859],[28.1184754,-2.0478419],[27.7791857,-2.0000029],[27.4247161,-2.023797],[27.257614,-2.2300471],[27.1891598,-2.2350597],[27.1478783,-2.2335031],[27.0659748,-2.2113054],[26.9767345,-2.1249384],[26.9386864,-2.1776171],[26.8539557,-2.3312218],[26.8597761,-2.6020846],[26.9150689,-2.8042429],[27.0549402,-3.0263168],[27.1132707,-3.140029],[27.1407407,-3.2663062],[27.1135176,-3.3859115],[27.1319295,-3.5136668],[27.1217176,-3.5613141],[27.0976408,-3.6591122],[27.0885382,-3.7249753],[27.116446,-3.7854977],[27.1642247,-3.847783],[27.1947268,-3.8885908],[27.2199717,-3.8966911],[27.2666797,-3.9045425],[27.3053543,-3.9168017],[27.33881,-3.9305147],[27.4133436,-3.9603341],[27.5973339,-4.0099239],[27.8545659,-4.1048153],[27.9238769,-4.1250073],[27.9984954,-4.1417493],[28.0304942,-4.1855776],[28.1327953,-4.2215374],[28.215365,-4.1529177],[28.5033779,-4.4610157],[28.6746735,-4.7257369],[28.7039081,-4.8108131],[28.7461914,-4.8902047],[28.7540504,-4.9607774],[29.1221155783341,-5.008227399921812]]]}},{"type":"Feature","properties":{"shapeName":"Central Kasai","shapeISO":"CD-KC"},"geometry":{"type":"Polygon","coordinates":[[[22.5247935,-4.2018693],[22.4630526,-4.4964802],[22.0601006,-5.1467299],[21.6927766,-5.0958451],[21.6519821,-5.3302592],[21.6895735,-5.3993107],[21.7867338,-5.4717678],[21.9276033,-5.5244895],[21.7955664,-5.8455754],[21.5760918,-6.0346541],[21.616453,-6.4009238],[21.610618,-6.5444003],[21.5833505,-6.7237624],[21.4827493,-6.7906026],[21.4189796,-6.8352175],[21.5042389,-6.9106784],[21.5519541,-6.9804731],[21.6218426,-7.0551954],[21.6673343,-7.1143221],[21.7220147,-7.1891734],[21.789226,-7.283333],[21.8344134,-7.3586141],[21.8610399,-7.4487624],[21.8542378,-7.5673262],[21.8348673,-7.6445499],[21.8608133,-7.6860906],[21.9456424,-7.6900757],[22.0154311,-7.6869172],[22.4764,-7.79722],[22.6524088,-7.7810327],[22.6651869,-7.8399828],[22.8736433,-7.9027265],[23.0980939,-7.8520322],[23.2069427,-7.7405097],[23.2192087,-7.6871455],[23.2313925,-7.6387058],[23.2303397,-7.5896653],[23.2179814,-7.5432922],[23.2387173,-7.4939396],[23.2596214,-7.4517912],[23.2458326,-7.4060823],[23.2635962,-7.3647266],[23.2344793,-7.3319764],[23.2430447,-7.2494699],[23.2424444,-7.2052836],[23.2220089,-7.1445696],[23.2387243,-7.0859796],[23.2631983,-7.0412972],[23.2544594,-7.0120191],[23.2766621,-6.9522256],[23.274983,-6.9167722],[23.153,-6.902752],[23.0700709,-6.85579],[23.0195867,-6.7708829],[23.0443046,-6.7394068],[23.0665872,-6.698292],[23.0821533,-6.6455414],[23.0949876,-6.6244412],[23.0958027,-6.5811566],[23.1002167,-6.5518355],[23.1282014,-6.5094299],[23.1381191,-6.4872372],[23.1422826,-6.4584767],[23.1556087,-6.4208515],[23.1538254,-6.3868417],[23.092398,-6.3625129],[23.0345043,-6.2774328],[23.0630907,-6.2570271],[23.0719081,-6.2125385],[23.0577516,-6.177928],[22.9616905,-6.0947197],[22.960626,-5.9366329],[22.9592826,-5.7863303],[23.2800502,-5.7765505],[23.4141246,-5.726966],[23.393931,-5.7691593],[23.4014193,-5.7871524],[23.5999352,-5.6851559],[23.7526162,-5.654197],[23.7249196,-5.5072075],[23.401786,-5.2672844],[23.0188999,-5.0288901],[23.1389008,-4.7755599],[22.9738998,-4.5036101],[22.7196143,-4.3301431],[22.5646958,-4.2119466],[22.5247935,-4.2018693]]]}},{"type":"Feature","properties":{"shapeName":"Lomami","shapeISO":"CD-LO"},"geometry":{"type":"Polygon","coordinates":[[[26.1438503,-6.2617302],[26.1632996,-5.8433299],[26.1147003,-5.4541702],[26.2041184,-5.1782806],[25.0502632,-4.994629],[24.9835046,-4.8364101],[24.5188999,-5.4169898],[24.0589754,-5.8334432],[24.0093219,-6.0261626],[24.0625987,-6.0369014],[24.1096014,-6.0473329],[24.1617844,-6.0756681],[24.1390558,-6.1461197],[24.0930917,-6.3395739],[24.0735797,-6.366178],[24.0353555,-6.3930179],[24.0022758,-6.3962725],[23.9693366,-6.4075875],[23.9319389,-6.4118995],[23.857133,-6.3979691],[23.7965065,-6.4241838],[23.7699513,-6.514408],[23.7478269,-6.6441983],[23.7345931,-6.7274622],[23.4413919,-6.6477161],[23.441418,-6.537233],[23.351847,-6.5373875],[23.1825701,-6.5746105],[23.1740326,-6.5305952],[23.1589869,-6.4924005],[23.1432771,-6.478617],[23.1276803,-6.5149611],[23.1026915,-6.5707035],[23.0949876,-6.6244412],[23.0766964,-6.6692728],[23.0452516,-6.7403573],[23.0300219,-6.7888304],[23.148182,-6.8948589],[23.2788935,-6.9185272],[23.2594407,-6.9996979],[23.2555098,-7.0446205],[23.2306654,-7.1263763],[23.2411908,-7.2199354],[23.2382842,-7.2982949],[23.2575069,-7.372039],[23.2480207,-7.4263415],[23.240077,-7.4957249],[23.2247554,-7.5667522],[23.2313925,-7.6387058],[23.2230032,-7.707356],[23.1851771,-7.817808],[23.1774106,-7.8770974],[23.2291203,-7.9543844],[23.538456,-7.9641083],[23.78421,-7.9617097],[23.9610429,-7.8542579],[23.9352284,-7.7436937],[23.9370511,-7.6375094],[23.9544621,-7.5077416],[23.9813867,-7.3949235],[23.9824007,-7.2756988],[24.0056787,-7.1752901],[24.0945334,-7.0676226],[24.1564875,-6.9837338],[24.1866106,-6.909865],[24.2283833,-6.9871523],[24.2629226,-7.0149126],[24.3208671,-7.0435249],[24.6476743,-6.9815093],[24.6772073,-6.9566575],[24.7134177,-6.9403714],[24.7414621,-6.9028135],[24.7876707,-6.8863236],[24.8363467,-6.8362164],[25.0580997,-6.6580601],[25.3840005,-6.7930036],[25.4496362,-6.7362987],[25.4709037,-6.6152214],[25.3898463,-6.5409671],[25.2998422,-6.4752118],[25.3706183,-6.3805895],[25.6673293,-6.2804081],[25.9452991,-6.2808299],[26.1438503,-6.2617302]]]}},{"type":"Feature","properties":{"shapeName":"Lualaba","shapeISO":"CD-LU"},"geometry":{"type":"Polygon","coordinates":[[[26.3341547,-9.5963707],[25.5210991,-9.6180296],[24.93742,-10.01312],[24.17368,-9.99356],[24.15524,-9.28441],[23.8123608,-8.7624102],[23.6555916,-7.9855667],[23.3504465,-7.9597559],[23.1790277,-7.8868222],[23.1865789,-7.8441782],[23.1481424,-7.7886231],[22.8079202,-7.9186938],[22.6509336,-7.8091004],[22.4764,-7.79722],[21.9969209,-7.6922952],[21.8616399,-7.6881111],[21.8016177,-7.739401],[21.7783142,-7.8206611],[21.7668384,-7.9789716],[21.8455402,-8.1249128],[21.8927378,-8.2911631],[21.9358517,-8.4130298],[21.935513,-8.5621036],[21.910825,-8.6521495],[21.8921347,-8.7388176],[21.8644696,-8.8665757],[21.8436703,-9.0266959],[21.8399048,-9.1151468],[21.8379087,-9.2771871],[21.798453,-9.3928617],[21.8316342,-9.5071919],[21.875324,-9.6443564],[21.9775609,-9.761299],[22.0494531,-9.8479808],[22.1919178,-9.9334672],[22.2216682,-10.0711118],[22.2256967,-10.1649542],[22.2835644,-10.2909342],[22.3047476,-10.3522698],[22.3077051,-10.4227334],[22.295656,-10.5255987],[22.3160886,-10.6359239],[22.3227506,-10.7045373],[22.326677,-10.761817],[22.2961912,-10.7811486],[22.2428943,-10.8026473],[22.1824314,-10.8446257],[22.17867,-10.883904],[22.20022,-10.92861],[22.204864,-10.971665],[22.214788,-11.041697],[22.220033,-11.115216],[22.265753,-11.197446],[22.493229,-11.125647],[22.633432,-11.070574],[22.913713,-11.085121],[23.237091,-11.071544],[23.486616,-10.938246],[23.809753,-11.010138],[23.944858,-10.950773],[24.1195922,-10.9496932],[24.2312988,-11.0361916],[24.3901648,-11.1168998],[24.3844509,-11.292372],[24.3185659,-11.4089177],[24.4433056,-11.4650619],[24.568448,-11.4519528],[24.6901436,-11.3452839],[24.8142673,-11.3039826],[24.9272993,-11.259771],[25.0741376,-11.2554492],[25.2705966,-11.209795],[25.3331406,-11.2328084],[25.3011012,-11.3209092],[25.3022476,-11.4135358],[25.3093099,-11.5116787],[25.3876706,-11.6521982],[25.7788,-11.37187],[26.2491798,-10.8701096],[26.5998497,-10.7045097],[27.0436707,-10.2858],[26.5551395,-9.8684998],[26.3341547,-9.5963707]]]}},{"type":"Feature","properties":{"shapeName":"Kinshasa","shapeISO":"CD-KN"},"geometry":{"type":"Polygon","coordinates":[[[16.2617642,-4.9926301],[16.2600594,-4.9682784],[16.2640199,-4.9429647],[16.2632494,-4.9139987],[16.2662161,-4.8929943],[16.2575435,-4.8672916],[16.2434379,-4.8406091],[16.2520335,-4.8185893],[16.2502906,-4.791587],[16.2623793,-4.7624656],[16.2956051,-4.7460172],[16.3927117,-4.4781934],[16.4769975,-4.4929111],[16.5151115,-4.4120016],[16.5328731,-4.3672866],[16.5062656,-4.2763936],[16.4823971,-4.243973],[16.4411984,-4.2066525],[16.4199123,-4.1710424],[16.311598,-4.1129667],[16.2581648,-4.0953251],[16.2406169,-4.0672415],[16.2079376,-4.0726669],[16.1295346,-4.0363333],[16.0457841,-4.0214614],[16.0018388,-4.0017687],[16.0009805,-3.9745406],[15.9786111,-3.949013],[15.9277697,-3.9423553],[15.8862976,-3.9543248],[15.5511505,-4.0431977],[15.4769602,-4.2156458],[15.3795494,-4.2801614],[15.2785685,-4.294569],[15.1755004,-4.3907854],[15.1519253,-4.4528537],[15.1776187,-4.5112326],[15.2272528,-4.5464272],[15.2622403,-4.5890581],[15.3020078,-4.6226617],[15.3296265,-4.6436509],[15.3599891,-4.6427045],[15.3813931,-4.6317087],[15.3969043,-4.6102593],[15.4066248,-4.5729592],[15.4306626,-4.5453764],[15.4575812,-4.5271511],[15.4985612,-4.55153],[15.5342406,-4.5598322],[15.5866898,-4.5822393],[15.6457327,-4.5842927],[15.6431285,-4.6068675],[15.6489706,-4.6310898],[15.6392188,-4.6526157],[15.6477572,-4.6665918],[15.6626771,-4.6820508],[15.6779564,-4.6807027],[15.6946738,-4.6969257],[15.7012799,-4.7168338],[15.6974991,-4.73458],[15.6975259,-4.7616361],[15.6770124,-4.7757973],[15.6760843,-4.7847087],[15.6690516,-4.8047922],[15.6575449,-4.8183004],[15.6499189,-4.8370784],[15.6418973,-4.8454877],[15.6388289,-4.8503118],[15.6387323,-4.8631429],[15.6449443,-4.885175],[15.6432921,-4.9023748],[15.6522109,-4.9171073],[15.6520285,-4.9285127],[15.6530209,-4.9425875],[15.6552794,-4.9558177],[15.7118942,-4.9935471],[15.8179484,-5.0283187],[15.8343012,-5.0192303],[15.8425838,-5.0092025],[15.8498875,-4.9879427],[15.8556381,-4.978195],[15.8600048,-4.9570851],[15.8558313,-4.9241845],[15.84492,-4.8938156],[15.8553914,-4.8769257],[15.8708718,-4.8600869],[15.9272039,-4.9658887],[15.9958844,-4.9630739],[16.2617642,-4.9926301]]]}},{"type":"Feature","properties":{"shapeName":"Kwilu","shapeISO":"CD-KL"},"geometry":{"type":"Polygon","coordinates":[[[19.6847819,-6.3458028],[19.68768,-6.2907283],[19.6812418,-6.1891416],[19.7781026,-6.107775],[19.8896387,-6.0310862],[20.0330626,-5.9021993],[20.1689959,-5.7302046],[20.1574126,-5.6129838],[20.1392165,-5.5174774],[20.1723472,-5.3190692],[20.1958648,-5.192061],[20.1687247,-5.0785517],[20.090292,-4.8566737],[20.0519135,-4.7000552],[20.0907124,-4.5412159],[20.0860355,-4.4463212],[20.0296769,-4.302214],[19.7133121,-4.0672631],[19.0316306,-3.7444195],[18.7181769,-3.6544851],[18.4878074,-3.5804752],[18.1664573,-3.4449461],[17.8258743,-3.4254081],[17.5642624,-3.3033959],[17.4280413,-3.2227244],[17.3281803,-3.4020374],[17.3265833,-3.6157622],[17.2374756,-3.7899218],[17.0494022,-3.980704],[16.8025531,-4.0834459],[16.6164722,-4.129333],[16.4791431,-4.2296591],[16.5340748,-4.3561609],[16.4841213,-4.4951343],[16.8980503,-4.34689],[17.4610996,-4.3550901],[17.7840384,-4.3332099],[17.7257247,-4.3814353],[17.6868965,-4.438162],[17.6427491,-4.4759958],[17.6807927,-4.547501],[17.6375748,-4.6057129],[17.6107752,-4.6632708],[17.5592659,-4.7425694],[17.5363882,-4.8048379],[17.509356,-4.8753845],[17.5002456,-4.9370948],[17.507385,-5.0114977],[17.5124628,-5.0807467],[17.5286593,-5.1460525],[17.4886976,-5.2094178],[17.467596,-5.2804202],[17.4651574,-5.3780607],[17.4794142,-5.4472662],[17.4727585,-5.502106],[17.5225867,-5.5536963],[17.5126145,-5.6230256],[17.5227323,-5.6677225],[17.5585038,-5.7117656],[17.7998363,-5.7177241],[18.0293543,-5.72733],[18.0905881,-5.8059621],[18.118566,-5.876236],[18.1807037,-5.8539225],[18.2003402,-5.8032745],[18.2619932,-5.8621234],[18.4752311,-5.863611],[18.5340934,-5.9930405],[18.7445654,-6.1371205],[18.8612116,-6.1256813],[18.8777695,-6.2290675],[18.9222115,-6.2447271],[18.93143,-6.2903236],[19.0578214,-6.2552461],[19.2033105,-6.159209],[19.3768852,-6.1448223],[19.3082505,-6.2086872],[19.284911,-6.2879869],[19.3237013,-6.3797674],[19.3949657,-6.3068759],[19.4818778,-6.2931402],[19.6593717,-6.3503251],[19.6847819,-6.3458028]]]}},{"type":"Feature","properties":{"shapeName":"Mai-Ndombe","shapeISO":"CD-MN"},"geometry":{"type":"Polygon","coordinates":[[[19.4599991,-1.56785],[19.2392006,-1.21556],[19.0643997,-0.89083],[18.9696999,-0.75583],[18.8314,-0.88861],[18.7972,-1.02167],[18.8306,-1.21139],[18.5806,-1.265],[18.3022,-1.14778],[18.0719,-1.25806],[17.8186,-1.40667],[17.5636,-1.50528],[17.1258,-1.76694],[16.8186,-1.78945],[16.8975,-1.94917],[16.4412432,-1.9599684],[16.3521509,-2.0435165],[16.175698,-2.2990294],[16.229167,-2.568611],[16.1798639,-2.8914536],[16.1714753,-3.1178661],[16.2133607,-3.2872026],[16.0914811,-3.5565729],[15.9359093,-3.8422522],[15.9204713,-3.9497092],[15.9589559,-3.9370466],[16.0030404,-3.9652931],[16.0004655,-4.0003987],[16.0457841,-4.0214614],[16.1338262,-4.0409566],[16.2140211,-4.0631625],[16.2444146,-4.0729236],[16.2774805,-4.101203],[16.410471,-4.1556336],[16.4508114,-4.1902173],[16.4650593,-4.2438018],[16.4971676,-4.1860034],[16.580184,-4.1440717],[16.6817286,-4.135247],[16.7950877,-4.0812906],[16.9125206,-3.9656431],[17.0669117,-3.9968011],[17.1622879,-3.9218018],[17.2594482,-3.7710801],[17.3279821,-3.6733579],[17.2960121,-3.5466623],[17.2983112,-3.4500167],[17.3584132,-3.318594],[17.4241062,-3.2204058],[17.4884319,-3.2619407],[17.5753691,-3.3078007],[17.6943817,-3.3356141],[17.9525092,-3.4015386],[18.1055175,-3.4081049],[18.2526313,-3.4257546],[18.4265242,-3.5672829],[18.5578452,-3.5970937],[18.7128554,-3.6447202],[18.8369666,-3.6788111],[19.0463444,-3.7541207],[19.4796177,-3.9889312],[19.7484394,-4.1014317],[19.983648,-4.2374573],[20.1901732,-4.3368888],[20.2807613,-4.3710595],[20.3649245,-4.3002576],[20.4531124,-4.2545487],[20.5753353,-4.2266445],[20.6751404,-4.1330099],[20.6457996,-3.59444],[20.7840851,-2.6981778],[20.9219672,-2.5687557],[20.9120092,-2.2983567],[20.8066428,-2.0542478],[20.6583057,-2.0789545],[20.3798794,-2.2118937],[20.229084,-2.0369664],[20.0168991,-1.94972],[19.8153,-1.7052799],[19.6133003,-1.78945],[19.4878006,-1.63472],[19.4599991,-1.56785]]]}}]}
